{"n":51839,"c":9,"l1":"1 51839U 2022-019 26137.84935133  0.00297879  363920-5  801850-4 0  9994","l2":"2 51839  97.3637 233.7957 0006389 227.4397 132.6339 15.94329474235284","nm":"JILIN-1 GAOFEN 03D15"},{"n":51841,"c":9,"l1":"1 51841U 2022-019 26137.82140740  0.00317511  418670-5  796530-4 0  9994","l2":"2 51841  97.3650 233.7145 0006756 224.1528 135.9209 15.95645793235287","nm":"JILIN-1 GAOFEN 03D12"},{"n":51951,"c":9,"l1":"1 51951U 2022-023 26137.84100294  0.00012693  00000-0  509450-4 0  9998","l2":"2 51951  63.4479  16.6473 0128309 343.8233  15.8799 15.17987224233106","nm":"2022-023F"},{"n":52145,"c":9,"l1":"1 52145U 2022-030 26137.06586204  0.00000243  00000-0  00000-0 0  9996","l2":"2 52145  62.6760 144.1393 6775507 272.8788  17.7083  2.00616156 30400","nm":"MERIDIAN 10"},{"n":52157,"c":9,"l1":"1 52157U 2022-033 26137.67500375  0.00001013  00000-0  132260-4 0  9998","l2":"2 52157  97.8397 217.4474 0005857  38.7186 321.4447 14.82622859222932","nm":"OMNI-L1"},{"n":52159,"c":9,"l1":"1 52159U 2022-033 26137.84151336  0.00000010  00000-0  889350-6 0  9995","l2":"2 52159  97.9794 220.5215 0001506  85.6896 274.4485 14.74958427222180","nm":"ENMAP"},{"n":52161,"c":9,"l1":"1 52161U 2022-033 26137.71683377  0.00009385  00000-0  153100-4 0  9998","l2":"2 52161  97.2748 229.5570 0003513 320.4111  39.6885 15.52812641230973","nm":"ARCSAT-1"},{"n":52196,"c":9,"l1":"1 52196U 2022-034 26137.73393252  0.00015450  00000-0  331500-4 0  9991","l2":"2 52196  52.9829  42.0296 0005268 141.9168 218.2210 15.44924791232250","nm":"GLOBAL-18"},{"n":52200,"c":9,"l1":"1 52200U 2022-035 26137.84213821 -0.00000060  00000-0 -501900-6 0  9991","l2":"2 52200  98.4066 146.8618 0001021  79.3490 280.7814 14.42219085216470","nm":"GAOFEN-3 03"},{"n":52257,"c":9,"l1":"1 52257U 2022-039 26137.80497122  0.00000137  00000-0  399480-5 0  9991","l2":"2 52257  98.1478  77.2875 0003917  11.5855 348.5434 14.57657115217510","nm":"DAQI-1"},{"n":52422,"c":9,"l1":"1 52422U 2022-047 26137.85040813  0.00023622  00000-0  442970-4 0  9996","l2":"2 52422  97.3403 228.3703 0005477 168.9384 191.1989 15.48634322226455","nm":"BRO-6"},{"n":52444,"c":9,"l1":"1 52444U 2022-048 26137.85347529  0.00068272  00000-0  591840-4 0  9996","l2":"2 52444  97.5691 249.2124 0005330 156.2616 203.8892 15.68912132224716","nm":"JILIN-1 GAOFEN 3D27"},{"n":52445,"c":9,"l1":"1 52445U 2022-048 26137.83804262  0.00078104  00000-0  619120-4 0  9994","l2":"2 52445  97.5628 249.2479 0004204 173.7747 186.3568 15.71054941224756","nm":"JILIN-1 GAOFEN 3D28"},{"n":52760,"c":9,"l1":"1 52760U 2022-057 26137.28865132  0.00003636  00000-0  140406-4 0  9990","l2":"2 52760  97.6564 276.4608 0007460 225.5781 134.4847 15.26927120220447","nm":"VIGORIDE-3"},{"n":52761,"c":9,"l1":"1 52761U 2022-057 26137.65746860  0.00006962  00000-0  151470-4 0  9996","l2":"2 52761  97.6067 284.8412 0016859 220.8357 139.1629 15.44508627221405","nm":"ION SCV-006"},{"n":52763,"c":9,"l1":"1 52763U 2022-057 26137.83966448  0.00005500  00000-0  160310-4 0  9994","l2":"2 52763  97.6650 285.8192 0007500 190.2417 169.8675 15.35801280221043","nm":"SHERPA-AC1"},{"n":52771,"c":9,"l1":"1 52771U 2022-057 26137.65806985  0.00000823  00000-0  111550-4 0  9997","l2":"2 52771  97.4729 202.0673 0008212  71.4442 288.7664 14.81280433215875","nm":"OMNI-L2"},{"n":52897,"c":9,"l1":"1 52897U 2022-065 26137.84339564  0.00000551  00000-0  116170-4 0  9991","l2":"2 52897  98.2182 281.8463 0009784 116.2358 243.9851 14.63249986207068","nm":"STEP CUBE LAB-II"},{"n":52898,"c":9,"l1":"1 52898U 2022-065 26137.85247174  0.00000577  00000-0  120180-4 0  9992","l2":"2 52898  98.2166 282.1933 0009071 116.0546 244.1590 14.63635282206816","nm":"RANDEV"},{"n":52899,"c":9,"l1":"1 52899U 2022-065 26137.34999718  0.00000561  00000-0  115525-4 0  9995","l2":"2 52899  98.2161 282.2435 0008693 117.3184 242.8905 14.64284089206485","nm":"SNUGLITE-II"},{"n":52900,"c":9,"l1":"1 52900U 2022-065 26137.38346653  0.00000317  00000-0  730358-5 0  9993","l2":"2 52900  98.2219 280.0289 0008797 118.6658 241.5429 14.61806163205947","nm":"MIMAN"},{"n":53043,"c":8,"l1":"1 53043U 2022-077 26137.49541306  0.00000265  00000-0  224326-5 0  9994","l2":"2 53043  97.4811 317.6353 0001669  91.0316 269.1102 15.05643983211264","nm":"STARLINK-4362"},{"n":53105,"c":6,"l1":"1 53105U 2022-080 26127.16150227 -0.00000008  00000-0  00000-0 0  9990","l2":"2 53105  70.1704 319.3995 0005357 343.8104  16.2342  6.38965197 89040","nm":"LARES-2"},{"n":53109,"c":9,"l1":"1 53109U 2022-080 26137.52392552 -0.00000003  00000-0  00000-0 0  9999","l2":"2 53109  70.1432 308.9131 0008813 296.7194  63.2564  6.42583321 90098","nm":"GREENCUBE (IO-117)"},{"n":53204,"c":8,"l1":"1 53204U 2022-084 26137.83335647 -0.00018899  00000-0 -895030-4 0  9997","l2":"2 53204  97.6000 198.4614 0002553  67.9497 289.1477 15.19299296  5677","nm":"STARLINK-4410"},{"n":53323,"c":9,"l1":"1 53323U 2022-089 26137.84756211  0.00060757  00000-0  518700-4 0  9993","l2":"2 53323  97.2261 240.8182 0002530 167.0887 193.0440 15.69326660213064","nm":"COSMOS 2558"},{"n":53346,"c":9,"l1":"1 53346U 2022-090 26137.83785469  0.00002449  00000-0  111990-4 0  9990","l2":"2 53346  97.3149 206.8035 0001298 316.1110  44.0023 15.21456514210193","nm":"TECMS"}