OBJECT_NAME,OBJECT_ID,EPOCH,MEAN_MOTION,ECCENTRICITY,INCLINATION,RA_OF_ASC_NODE,ARG_OF_PERICENTER,MEAN_ANOMALY,EPHEMERIS_TYPE,CLASSIFICATION_TYPE,NORAD_CAT_ID,ELEMENT_SET_NO,REV_AT_EPOCH,BSTAR,MEAN_MOTION_DOT,MEAN_MOTION_DDOT
JILIN-1 GAOFEN 03D15,2022-019R,2026-05-17T20:23:03.955776,15.94329474,.0006389,97.3637,233.7957,227.4397,132.6339,0,U,51839,999,23528,.80185E-3,.297879E-2,.36392E-4
JILIN-1 GAOFEN 03D12,2022-019T,2026-05-17T19:42:49.599360,15.95645793,.0006756,97.3650,233.7145,224.1528,135.9209,0,U,51841,999,23528,.79653E-3,.317511E-2,.41867E-4
2022-023F,2022-023F,2026-05-17T20:11:02.654016,15.17987224,.0128309,63.4479,16.6473,343.8233,15.8799,0,U,51951,999,23310,.50945E-3,.12693E-3,0
MERIDIAN 10,2022-030A,2026-05-17T01:34:50.480256,2.00616156,.67755074,62.6760,144.1393,272.8788,17.7083,0,U,52145,999,3040,0,.243E-5,0
OMNI-L1,2022-033A,2026-05-17T16:12:00.324864,14.82622859,.0005857,97.8397,217.4474,38.7186,321.4447,0,U,52157,999,22293,.13226E-3,.1013E-4,0
ENMAP,2022-033C,2026-05-17T20:11:46.754304,14.74958427,.0001506,97.9794,220.5215,85.6896,274.4485,0,U,52159,999,22218,.88935E-5,.1E-6,0
ARCSAT-1,2022-033E,2026-05-17T17:12:14.438592,15.52812641,.0003513,97.2748,229.5570,320.4111,39.6885,0,U,52161,999,23097,.1531E-3,.9385E-4,0
GLOBAL-18,2022-034B,2026-05-17T17:36:51.770592,15.44924791,.0005268,52.9829,42.0296,141.9168,218.2210,0,U,52196,999,23225,.3315E-3,.1545E-3,0
GAOFEN-3 03,2022-035A,2026-05-17T20:12:40.741344,14.42219085,.0001021,98.4066,146.8618,79.3490,280.7814,0,U,52200,999,21647,-.5019E-5,-.6E-6,0
DAQI-1,2022-039A,2026-05-17T19:19:09.513408,14.57657115,.0003917,98.1478,77.2875,11.5855,348.5434,0,U,52257,999,21751,.39948E-4,.137E-5,0
BRO-6,2022-047AE,2026-05-17T20:24:35.262432,15.48634322,.0005477,97.3403,228.3703,168.9384,191.1989,0,U,52422,999,22645,.44297E-3,.23622E-3,0
JILIN-1 GAOFEN 3D27,2022-048B,2026-05-17T20:29:00.265056,15.68912132,.000533,97.5691,249.2124,156.2616,203.8892,0,U,52444,999,22471,.59184E-3,.68272E-3,0
JILIN-1 GAOFEN 3D28,2022-048C,2026-05-17T20:06:46.882368,15.71054941,.0004204,97.5628,249.2479,173.7747,186.3568,0,U,52445,999,22475,.61912E-3,.78104E-3,0
VIGORIDE-3,2022-057AE,2026-05-17T06:55:39.474912,15.26927120,.000746,97.6564,276.4608,225.5781,134.4847,0,U,52760,999,22044,.14040632E-3,.3636E-4,0
ION SCV-006,2022-057AF,2026-05-17T15:46:45.287904,15.44508627,.0016859,97.6067,284.8412,220.8357,139.1629,0,U,52761,999,22140,.15147E-3,.6962E-4,0
SHERPA-AC1,2022-057AH,2026-05-17T20:09:07.011936,15.35801280,.00075,97.6650,285.8192,190.2417,169.8675,0,U,52763,999,22104,.16031E-3,.55E-4,0
OMNI-L2,2022-057AR,2026-05-17T15:47:37.235904,14.81280433,.0008212,97.4729,202.0673,71.4442,288.7664,0,U,52771,999,21587,.11155E-3,.823E-5,0
STEP CUBE LAB-II,2022-065D,2026-05-17T20:14:29.383296,14.63249986,.0009784,98.2182,281.8463,116.2358,243.9851,0,U,52897,999,20706,.11617E-3,.551E-5,0
RANDEV,2022-065E,2026-05-17T20:27:33.558336,14.63635282,.0009071,98.2166,282.1933,116.0546,244.1590,0,U,52898,999,20681,.12018E-3,.577E-5,0
SNUGLITE-II,2022-065F,2026-05-17T08:23:59.756352,14.64284089,.0008693,98.2161,282.2435,117.3184,242.8905,0,U,52899,999,20648,.11552468E-3,.561E-5,0
MIMAN,2022-065G,2026-05-17T09:12:11.508192,14.61806163,.00087971,98.2219,280.0289,118.6658,241.5429,0,U,52900,999,20594,.7303577E-4,.317E-5,0
STARLINK-4362,2022-077A,2026-05-17T11:53:23.688384,15.05643983,.00016694,97.4811,317.6353,91.0316,269.1102,0,U,53043,999,21126,.22432649E-4,.265E-5,0
LARES-2,2022-080A,2026-05-07T03:52:33.796992,6.38965197,.0005357,70.1704,319.3995,343.8104,16.2342,0,U,53105,999,8904,0,-.8E-7,0
GREENCUBE (IO-117),2022-080E,2026-05-17T12:34:27.165792,6.42583321,.00088126,70.1432,308.9131,296.7194,63.2564,0,U,53109,999,9009,0,-.3E-7,0
STARLINK-4410,2022-084R,2026-05-17T20:00:01.999008,15.19299296,.0002553,97.6000,198.4614,67.9497,289.1477,0,U,53204,999,567,-.89503E-3,-.18899E-3,0
COSMOS 2558,2022-089A,2026-05-17T20:20:29.366304,15.69326660,.000253,97.2261,240.8182,167.0887,193.0440,0,U,53323,999,21306,.5187E-3,.60757E-3,0
TECMS,2022-090A,2026-05-17T20:06:30.645216,15.21456514,.0001298,97.3149,206.8035,316.1110,44.0023,0,U,53346,999,21019,.11199E-3,.2449E-4,0
